DELTA 2 R/B(1)          
1 20453U 90008B   26124.19309073  .00057831  00000+0  53506-3 0  9993
2 20453  35.6000 168.5916 0071387  60.1224 300.6584 15.63069197934804
COSMOS 2058             
1 20465U 90010A   26124.12251900  .00003151  00000+0  18292-3 0  9996
2 20465  82.4673 352.8084 0010839 134.1316 226.0808 15.11750297950614
SL-14 R/B               
1 20466U 90010B   26124.19457742  .00000396  00000+0  44875-4 0  9991
2 20466  82.5044 215.2535 0021240 115.3443 244.9975 14.83619077936718
SL-14 R/B               
1 20511U 90018B   26124.13058716  .00000312  00000+0  36206-4 0  9999
2 20511  82.5220 171.2871 0014690 269.2435  90.7096 14.82189759930791
HST                     
1 20580U 90037B   26123.99854367  .00007309  00000+0  23480-3 0  9997
2 20580  28.4763  22.4637 0001970  20.6307 339.4368 15.30267105781794
SL-16 R/B               
1 20625U 90046B   26124.11948149  .00000315  00000+0  18728-3 0  9993
2 20625  70.9989 181.4992 0015752 226.0731 133.9093 14.15020061856236
COSMOS 2084             
1 20663U 90055A   26124.03946338  .00001838  00000+0  13945-3 0  9991
2 20663  62.7881 146.7512 0008517 216.6081 143.4438 15.05938331944655
SL-6 R/B(2)             
1 20666U 90055D   26124.09886801  .00002502  00000+0  19341-3 0  9993
2 20666  62.7837  65.3835 0033677 358.4065   1.6921 15.03842709946526
SL-8 R/B                
1 20775U 90078B   26124.18582677  .00023436  00000+0  67823-3 0  9990
2 20775  82.9049 201.3468 0355526 186.5346 173.1181 14.90791021817561
SL-8 R/B                
1 21088U 91006B   26124.11956404  .00000109  00000+0  93778-4 0  9997
2 21088  82.9395 128.8202 0021136 237.9610 188.4481 13.77506544771709
OKEAN-3                 
1 21397U 91039A   26124.19703398  .00002987  00000+0  20746-3 0  9996
2 21397  82.5152 283.0356 0015047 138.5997 221.6373 15.05115529873380
COSMOS 2151             
1 21422U 91042A   26124.17650074  .00001329  00000+0  10378-3 0  9998
2 21422  82.4989  30.1464 0010974 227.1703 132.8600 15.00321697871510
SL-14 R/B               
1 21423U 91042B   26124.12793727  .00000318  00000+0  37098-4 0  9993
2 21423  82.4935 168.2133 0018366  61.7641 298.5424 14.81875366861286
ERS-1                   
1 21574U 91050A   26124.02720152  .00000314  00000+0  11479-3 0  9990
2 21574  98.7825 143.6418 0032634  39.9228 320.4350 14.39489524823692
ARIANE 40 R/B           
1 21610U 91050F   26124.15469663  .00000264  00000+0  91287-4 0  9992
2 21610  98.1910 174.2792 0001791 258.7713 101.3276 14.42930636826995
INTERCOSMOS 25          
1 21819U 91086A   26124.12299779  .00000828  00000+0  16022-3 0  9997
2 21819  82.6005 276.4762 1485545 357.4527   1.9521 12.12143078503402
SL-8 R/B                
1 21876U 92008B   26124.08223755  .00000091  00000+0  78387-4 0  9996
2 21876  82.9286 226.5754 0034033 342.1227 191.8291 13.75971692717035
SL-8 R/B                
1 21938U 92020B   26124.04698213 -.00000022  00000+0 -38577-4 0  9993
2 21938  82.9270 112.6445 0029901 141.0096 281.1869 13.75547819708749
USA 81                  
1 21949U 92023A   26124.19534910  .00000163  00000+0  52874-4 0  9997
2 21949  85.0045  99.3972 0001632 110.7162 249.4206 14.32385249102739
COSMOS 2219             
1 22219U 92076A   26124.12109830  .00000198  00000+0  12845-3 0  9999
2 22219  71.0609 262.1882 0016271 118.5549 241.7213 14.14101766726219
SL-16 R/B               
1 22220U 92076B   26124.10735338  .00000257  00000+0  15217-3 0  9999
2 22220  71.0000  71.6359 0012569   0.5499  10.3731 14.16866955729687
COSMOS 2221             
1 22236U 92080A   26124.20843102  .00001622  00000+0  14060-3 0  9993
2 22236  82.5054 225.8905 0014295  12.3328 347.8241 14.96419765789096
SL-16 R/B               
1 22285U 92093B   26124.07400521  .00000024  00000+0  36582-4 0  9999
2 22285  71.0222 247.9952 0006064 239.1024 120.9503 14.15461689720992
COSMOS 2228             
1 22286U 92094A   26124.12053862  .00001770  00000+0  14933-3 0  9993
2 22286  82.5194 184.2450 0019464 114.0080 246.3183 14.97441187784353
SL-16 R/B               
1 22566U 93016B   26124.19073192 -.00000034  00000+0  70805-5 0  9999
2 22566  71.0041  98.6136 0012301 243.8097 116.1761 14.15307410710028
COSMOS 2242             
1 22626U 93024A   26124.19397549  .00001749  00000+0  15016-3 0  9994
2 22626  82.5208 213.6224 0017720 117.0026 243.3008 14.96776275788691
SL-16 R/B               
1 22803U 93059B   26124.09473503  .00000084  00000+0  65389-4 0  9993
2 22803  70.9904 254.2844 0015421 130.8710 229.3753 14.17242427687385
ARIANE 40 R/B           
1 22830U 93061H   26124.14349200  .00000196  00000+0  87359-4 0  9993
2 22830  98.4835 191.9111 0011871 117.8963 242.3425 14.32888547702045
COSMOS 2278             
1 23087U 94023A   26124.11567956 -.00000056  00000+0 -45560-5 0  9990
2 23087  71.0552  59.1334 0010990 297.2354  62.7648 14.14389352652644
SL-16 R/B               
1 23088U 94023B   26123.99582074  .00000289  00000+0  17373-3 0  9999
2 23088  70.9996 314.7395 0004806 233.2263 126.8418 14.15018064653918
SL-16 R/B               
1 23343U 94074B   26124.04485461  .00000403  00000+0  60605-4 0  9993
2 23343  97.7025 152.5988 0007654  50.1861 338.9263 14.79464451695434
SL-16 R/B               
1 23405U 94077B   26123.88516978 -.00000228  00000+0 -92085-4 0  9998
2 23405  70.9834 236.3642 0000454  24.1174 335.9970 14.15571719624048
ARIANE 40+ R/B          
1 23561U 95021B   26124.12574859  .00000266  00000+0  98543-4 0  9996
2 23561  98.4422 194.8336 0006202 346.3646  29.0230 14.39808705627224
SL-16 R/B               
1 23705U 95058B   26124.10684094 -.00000197  00000+0 -76200-4 0  9998
2 23705  71.0216  63.9055 0011381  25.5739 334.5945 14.15502245575693
SL-16 R/B               
1 24298U 96051B   26124.19377286  .00000106  00000+0  84082-4 0  9996
2 24298  70.7622  57.7576 0012600  50.7487 309.4748 14.12430455529480
ORBVIEW 2 (SEASTAR)     
1 24883U 97037A   26124.17879446  .00000210  00000+0  89201-4 0  9998
2 24883  98.8650 289.9869 0001183 241.0164 119.0902 14.35530166516430
SL-16 R/B               
1 25400U 98043G   26124.16042275  .00000046  00000+0  38235-4 0  9991
2 25400  98.8338  77.9489 0009235 208.2739 151.7941 14.26061395446892
SL-16 R/B               
1 25407U 98045B   26124.16120405  .00000235  00000+0  14270-3 0  9994
2 25407  71.0114  64.9162 0009382 293.4612  66.5525 14.16197732434956
ISS (ZARYA)             
1 25544U 98067A   26124.19972499  .00005402  00000+0  10582-3 0  9994
2 25544  51.6306 157.8339 0007307  21.3717 338.7575 15.49085010564935
CZ-4B R/B               
1 25732U 99025C   26124.11604277  .00000045  00000+0  42307-4 0  9995
2 25732  98.6522 167.0554 0037076 183.7244 236.1440 14.18275735396026
OKEAN-O                 
1 25860U 99039A   26124.14456052  .00000546  00000+0  78299-4 0  9996
2 25860  97.9345 183.4420 0001740 109.0482 251.0919 14.80413644442594
SL-16 R/B               
1 25861U 99039B   26124.13997036  .00000527  00000+0  73432-4 0  9991
2 25861  97.9867 183.1225 0016154  78.9191 281.3837 14.81800398445078
DELTA 2 R/B             
1 25876U 99041E   26124.15085745  .00000277  00000+0  84085-4 0  9995
2 25876  51.7612  79.7108 0502275 151.9788 210.9180 14.11941893370860
HELIOS 1B               
1 25977U 99064A   26124.19857743  .00001364  00000+0  15548-3 0  9996
2 25977  98.1645  28.0623 0000671 129.9494 230.1780 14.87888047693518
TERRA                   
1 25994U 99068A   26124.19121500  .00000364  00000+0  83116-4 0  9990
2 25994  97.9491 175.4744 0002744  39.2279  37.5521 14.61067614403186
SL-16 R/B               
1 26070U 00006B   26124.04973662  .00000040  00000+0  44298-4 0  9997
2 26070  71.0038 341.4339 0014330  98.4170 261.8578 14.15834721356392
TITAN 4B R/B            
1 26474U 00047B   26124.14601466  .00002798  00000+0  17662-3 0  9997
2 26474  67.9891 244.5126 0043188 332.4900  27.3963 15.09966747401283
ENVISAT                 
1 27386U 02009A   26124.15739380  .00000097  00000+0  45131-4 0  9991
2 27386  98.3810  76.4657 0001155  89.6108 281.4095 14.39054183267154
IDEFIX & ARIANE 42P R/B 
1 27422U 02021B   26124.08146758  .00000242  00000+0  10828-3 0  9995
2 27422  98.5928  62.0479 0012464  29.3942 330.7940 14.31060433251946
AQUA                    
1 27424U 02022A   26124.19343667  .00000772  00000+0  16345-3 0  9996
2 27424  98.4254  92.6076 0002125  87.4640   3.0051 14.62089068276842
CZ-4B R/B               
1 27432U 02024C   26124.17498722  .00000037  00000+0  42036-4 0  9999
2 27432  98.8733 177.2724 0049427 224.4900 202.6556 14.14557175237081
MIDORI II (ADEOS-II)    
1 27597U 02056A   26124.17666183  .00000263  00000+0  12100-3 0  9993
2 27597  98.7853  83.0711 0001229 135.2747 224.8533 14.29324165218224
H-2A R/B                
1 27601U 02056E   26123.90917147  .00000327  00000+0  12923-3 0  9992
2 27601  98.3287  82.2054 0070207 358.2080  68.7542 14.33799546222029
CZ-4B R/B               
1 28059U 03049C   26124.22206938  .00000365  00000+0  95104-4 0  9993
2 28059  98.6899 121.3215 0049214  62.9191 297.7014 14.55067584194670
CZ-2C R/B               
1 28222U 04012C   26124.13098030  .00077407  00000+0  59497-3 0  9993
2 28222  97.7121 194.9442 0012563 108.6564 251.6063 15.71699560212967
SL-16 R/B               
1 28353U 04021B   26124.10769179 -.00000161  00000+0 -58903-4 0  9991
2 28353  70.9978 116.1953 0006905 300.6272  59.4169 14.14601884130677
CZ-4B R/B               
1 28415U 04035C   26124.12516336  .00007644  00000+0  26192-3 0  9997
2 28415  97.3402 157.7103 0032935 130.0468 230.3670 15.29952236188388
CZ-2C R/B               
1 28480U 04046B   26124.15853854  .00000142  00000+0  68218-4 0  9995
2 28480  98.1967  35.6848 0139257 351.3947   8.4849 14.27013767116411
ARIANE 5 R/B            
1 28499U 04049H   26124.00793425  .00001061  00000+0  12277-3 0  9993
2 28499  98.2694 294.5636 0084240 170.9463 189.3294 14.85373608154006
